NORAD_CAT_ID,OBJECT_NAME,OBJECT_TYPE,EPOCH,MEAN_MOTION,ECCENTRICITY,INCLINATION,RA_OF_ASC_NODE,ARG_OF_PERICENTER,MEAN_ANOMALY,BSTAR,MEAN_MOTION_DOT,MEAN_MOTION_DDOT,TLE_LINE0,TLE_LINE1,TLE_LINE2,SEMIMAJOR_AXIS,PERIOD,APOGEE,PERIGEE,DECAYED
49443.0,STARLINK-3136,PAYLOAD,2022-03-01 06:00:00,15.24429627,0.0001559,53.2174,326.2414,44.4006,295.3425,-0.028558,-0.00658573,0.0,0 STARLINK-3136,1 49443U 21104AM  22060.25001157 -.00658573  00000-0 -28558-1 0  9998,2 49443  53.2174 326.2414 0001559  44.4006 295.3425 15.24429627 18144,6870.636,94.462,493.572,491.43,0.0
49443.0,STARLINK-3136,PAYLOAD,2022-03-01 14:00:01,15.23960319,0.0001591,53.2174,324.709,39.9715,329.8159,-0.02879,-0.00654918,0.0,0 STARLINK-3136,1 49443U 21104AM  22060.58334491 -.00654918  00000-0 -28790-1 0  9991,2 49443  53.2174 324.7090 0001591  39.9715 329.8159 15.23960319  3642,6872.045999999999,94.491,495.005,492.818,0.0
49443.0,STARLINK-3136,PAYLOAD,2022-03-01 22:00:01,15.23496625,0.0001838,53.2177,323.1808,34.5245,4.8056,-0.02942,-0.0065968999999999,0.0,0 STARLINK-3136,1 49443U 21104AM  22060.91668981 -.00659690  00000-0 -29420-1 0  9995,2 49443  53.2177 323.1808 0001838  34.5245   4.8056 15.23496625  3659,6873.44,94.519,496.569,494.042,0.0
49443.0,STARLINK-3136,PAYLOAD,2022-03-02 14:00:01,15.22562081,0.0001791,53.2174,320.1237,36.7621,59.7862,-0.030148,-0.00657597,0.0,0 STARLINK-3136,1 49443U 21104AM  22061.58334491 -.00657597  00000-0 -30148-1 0  9998,2 49443  53.2174 320.1237 0001791  36.7621  59.7862 15.22562081 18355,6876.253000000002,94.577,499.349,496.886,0.0
49443.0,STARLINK-3136,PAYLOAD,2022-03-02 22:00:00,15.22095661,0.0002002,53.2175,318.5989,34.3806,89.9662,-0.030584,-0.00657934,0.0,0 STARLINK-3136,1 49443U 21104AM  22061.91667824 -.00657934  00000-0 -30584-1 0  9993,2 49443  53.2175 318.5989 0002002  34.3806  89.9662 15.22095661  3651,6877.656999999997,94.606,500.899,498.146,0.0
49443.0,STARLINK-3136,PAYLOAD,2022-03-03 14:00:01,15.21163476,0.0001812,53.2173,315.5482,41.5796,136.6841,-0.031519,-0.00659475,0.0,0 STARLINK-3136,1 49443U 21104AM  22062.58334491 -.00659475  00000-0 -31519-1 0  9999,2 49443  53.2173 315.5482 0001812  41.5796 136.6841 15.21163476  3658,6880.467,94.664,503.579,501.085,0.0
49443.0,STARLINK-3136,PAYLOAD,2022-03-03 22:00:00,15.20694599,0.0001978,53.2175,314.0267,39.1908,165.1903,-0.031754,-0.00655599,0.0,0 STARLINK-3136,1 49443U 21104AM  22062.91667824 -.00655599  00000-0 -31754-1 0  9999,2 49443  53.2175 314.0267 0001978  39.1908 165.1903 15.20694599 18551,6881.880999999999,94.694,505.107,502.385,0.0
49443.0,STARLINK-3136,PAYLOAD,2022-03-04 14:00:01,15.19762664,0.0001786,53.2173,310.9824,42.3605,212.6371,-0.032745,-0.00657653,0.0,0 STARLINK-3136,1 49443U 21104AM  22063.58335648 -.00657653  00000-0 -32745-1 0  9993,2 49443  53.2173 310.9824 0001786  42.3605 212.6371 15.19762664  3659,6884.694,94.752,507.789,505.33,0.0
49443.0,STARLINK-3136,PAYLOAD,2022-03-04 22:00:00,15.19295283,0.0002045,53.2175,309.4645,34.0464,245.3224,-0.033102,-0.00663081,0.0,0 STARLINK-3136,1 49443U 21104AM  22063.91667824 -.00663081  00000-0 -33102-1 0  9994,2 49443  53.2175 309.4645 0002045  34.0464 245.3224 15.19295283  3642,6886.106,94.781,509.379,506.56300000000016,0.0
49443.0,STARLINK-3136,PAYLOAD,2022-03-05 06:00:00,15.18781361,0.0001793,53.2167,307.9441,36.219,267.0505,-0.030141,-0.00592759,0.0,0 STARLINK-3136,1 49443U 21104AM  22064.25001157 -.00592759  00000-0 -30141-1 0  9996,2 49443  53.2167 307.9441 0001793  36.2190 267.0505 15.18781361 18756,6887.659000000002,94.813,510.759,508.29,0.0
49443.0,STARLINK-3136,PAYLOAD,2022-03-05 14:00:01,15.18361474,0.0001803,53.2174,306.4267,37.4603,289.0988,-0.03397,-0.00662273,0.0,0 STARLINK-3136,1 49443U 21104AM  22064.58334491 -.00662273  00000-0 -33970-1 0  9994,2 49443  53.2174 306.4267 0001803  37.4603 289.0988 15.18361474  3626,6888.929,94.839,512.036,509.552,0.0
49443.0,STARLINK-3136,PAYLOAD,2022-03-05 22:00:01,15.17896981,0.0001901,53.2174,304.9119,34.2766,315.0973,-0.034604,-0.00665424,0.0,0 STARLINK-3136,1 49443U 21104AM  22064.91668981 -.00665424  00000-0 -34604-1 0  9991,2 49443  53.2174 304.9119 0001901  34.2766 315.0973 15.17896981 18859,6890.335,94.868,513.509,510.89,0.0
49443.0,STARLINK-3136,PAYLOAD,2022-03-06 14:00:01,15.16869827,0.0001653,53.2168,301.879,27.852,5.3339,-0.028219,-0.00529053,0.0,0 STARLINK-3136,1 49443U 21104AM  22065.58334491 -.00529053  00000-0 -28219-1 0  9993,2 49443  53.2168 301.8790 0001653  27.8520   5.3339 15.16869827  3614,6893.445,94.932,516.4490000000002,514.17,0.0
49443.0,STARLINK-3136,PAYLOAD,2022-03-06 22:00:00,15.16498223,0.0002014,53.2174,300.3693,31.8452,22.3617,-0.036125,-0.00667142,0.0,0 STARLINK-3136,1 49443U 21104AM  22065.91667824 -.00667142  00000-0 -36125-1 0  9996,2 49443  53.2174 300.3693 0002014  31.8452  22.3617 15.16498223  3647,6894.571,94.956,517.8240000000002,515.047,0.0
49443.0,STARLINK-3136,PAYLOAD,2022-03-07 06:00:00,15.16030742,0.0001581,53.2173,298.8568,45.7629,28.9556,-0.03651,-0.00665355,0.0,0 STARLINK-3136,1 49443U 21104AM  22066.25001157 -.00665355  00000-0 -36510-1 0  9997,2 49443  53.2173 298.8568 0001581  45.7629  28.9556 15.16030742 19061,6895.988,94.985,518.943,516.763,0.0
49443.0,STARLINK-3136,PAYLOAD,2022-03-07 12:00:00,15.15677895,0.0001436,53.2173,297.7222,51.5394,308.1962,-0.036588,-0.00660398,0.0,0 STARLINK-3136,1 49443U 21104AM  22066.50001157 -.00660398  00000-0 -36588-1 0  9992,2 49443  53.2173 297.7222 0001436  51.5394 308.1962 15.15677895  3678,6897.058000000001,95.007,519.914,517.933,0.0
49443.0,STARLINK-3136,PAYLOAD,2022-03-07 22:00:00,15.15098093,0.0002188,53.2173,295.8364,31.1075,82.9505,-0.037564,-0.00666566,0.0,0 STARLINK-3136,1 49443U 21104AM  22066.91667824 -.00666566  00000-0 -37564-1 0  9994,2 49443  53.2173 295.8364 0002188  31.1075  82.9505 15.15098093  3610,6898.818,95.043,522.192,519.173,0.0
49443.0,STARLINK-3136,PAYLOAD,2022-03-08 06:00:02,15.14630177,0.0002148,53.2173,294.3269,30.6112,102.3398,-0.037903,-0.00663869,0.0,0 STARLINK-3136,1 49443U 21104AM  22067.25002315 -.00663869  00000-0 -37903-1 0  9990,2 49443  53.2173 294.3269 0002148  30.6112 102.3398 15.14630177 19214,6900.239000000001,95.073,523.586,520.621,0.0
49443.0,STARLINK-3136,PAYLOAD,2022-03-08 14:00:01,15.1409304,0.0001675,53.2167,292.8158,10.0493,141.1515,-0.033102,-0.00570554,0.0,0 STARLINK-3136,1 49443U 21104AM  22067.58334491 -.00570554  00000-0 -33102-1 0  9994,2 49443  53.2167 292.8158 0001675  10.0493 141.1515 15.14093040  3616,6901.87,95.106,524.891,522.5790000000002,0.0
49443.0,STARLINK-3136,PAYLOAD,2022-03-08 22:00:00,15.13697553,0.0002294,53.2173,291.3132,29.5185,139.345,-0.038999,-0.0066518999999999,0.0,0 STARLINK-3136,1 49443U 21104AM  22067.91667824 -.00665190  00000-0 -38999-1 0  9990,2 49443  53.2173 291.3132 0002294  29.5185 139.3450 15.13697553  3648,6903.073,95.131,526.521,523.354,0.0
49443.0,STARLINK-3136,PAYLOAD,2022-03-09 14:00:01,15.12764597,0.00018,53.2174,288.3013,46.5258,156.072,-0.040003,-0.00664602,0.0,0 STARLINK-3136,1 49443U 21104AM  22068.58334491 -.00664602  00000-0 -40003-1 0  9991,2 49443  53.2174 288.3013 0001800  46.5258 156.0720 15.12764597  3654,6905.91,95.19,529.018,526.5319999999998,0.0
49443.0,STARLINK-3136,PAYLOAD,2022-03-09 16:00:00,15.12606102,0.000177,53.217,287.9239,39.2046,257.4732,-0.0363,-0.00598048,0.0,0 STARLINK-3136,1 49443U 21104AM  22068.66667824 -.00598048  00000-0 -36300-1 0  9994,2 49443  53.2170 287.9239 0001770  39.2046 257.4732 15.12606102 19423,6906.393,95.2,529.48,527.035,0.0
49443.0,STARLINK-3136,PAYLOAD,2022-03-09 22:00:01,15.12296902,0.0002052,53.2173,286.7996,38.5119,180.1745,-0.040452,-0.00663404,0.0,0 STARLINK-3136,1 49443U 21104AM  22068.91668981 -.00663404  00000-0 -40452-1 0  9999,2 49443  53.2173 286.7996 0002052  38.5119 180.1745 15.12296902  3635,6907.334,95.219,530.617,527.7819999999998,0.0
49443.0,STARLINK-3136,PAYLOAD,2022-03-10 06:00:00,15.11831655,0.0001631999999999,53.2173,285.2964,53.8672,180.2214,-0.041124,-0.00665513,0.0,0 STARLINK-3136,1 49443U 21104AM  22069.25001157 -.00665513  00000-0 -41124-1 0  9993,2 49443  53.2173 285.2964 0001632  53.8672 180.2214 15.11831655 19516,6908.751,95.249,531.744,529.489,0.0
49443.0,STARLINK-3136,PAYLOAD,2022-03-10 14:00:01,15.11263397,0.0001696999999999,53.217,283.7923,47.6458,201.403,-0.032556,-0.00521309,0.0,0 STARLINK-3136,1 49443U 21104AM  22069.58334491 -.00521309  00000-0 -32556-1 0  9992,2 49443  53.2170 283.7923 0001697  47.6458 201.4030 15.11263397  3602,6910.483,95.285,533.521,531.175,0.0
49443.0,STARLINK-3136,PAYLOAD,2022-03-10 22:00:01,15.10897223,0.0001928,53.2175,282.2958,40.777,222.6231,-0.042054,-0.00663239,0.0,0 STARLINK-3136,1 49443U 21104AM  22069.91668981 -.00663239  00000-0 -42054-1 0  9996,2 49443  53.2175 282.2958 0001928  40.7770 222.6231 15.10897223  3638,6911.599,95.308,534.797,532.132,0.0
49443.0,STARLINK-3136,PAYLOAD,2022-03-11 12:00:00,15.10082432,0.0001818,53.2173,279.6713,44.6114,152.4791,-0.04325,-0.0066661,0.0,0 STARLINK-3136,1 49443U 21104AM  22070.50001157 -.00666610  00000-0 -43250-1 0  9994,2 49443  53.2173 279.6713 0001818  44.6114 152.4791 15.10082432 19702,6914.085,95.359,537.207,534.693,0.0
49443.0,STARLINK-3136,PAYLOAD,2022-03-11 14:00:01,15.09964054,0.0001726,53.2176,279.297,45.9445,244.3994,-0.043089,-0.00662239,0.0,0 STARLINK-3136,1 49443U 21104AM  22070.58334491 -.00662239  00000-0 -43089-1 0  9995,2 49443  53.2176 279.2970 0001726  45.9445 244.3994 15.09964054  3611,6914.446999999999,95.367,537.505,535.118,0.0
49443.0,STARLINK-3136,PAYLOAD,2022-03-11 22:00:00,15.09496758,0.0001951,53.2176,277.8016,38.2615,264.744,-0.043622,-0.00661872,0.0,0 STARLINK-3136,1 49443U 21104AM  22070.91667824 -.00661872  00000-0 -43622-1 0  9996,2 49443  53.2176 277.8016 0001951  38.2615 264.7440 15.09496758  3624,6915.874,95.396,539.0880000000002,536.389,0.0
